#aV2007  7 21  0  0   .00000000      96 DD+AD WGS84 FIT  NGA
## 1436 518400.00000000   900.00000000 54302  .0000000000000
+   31     1  2  3  4  5  6  7  8  9 10 11 12 13 14 16 17 18
+         19 20 21 22 23 24 25 26 27 28 29 30 31 32  0  0  0
+          0  0  0  0  0  0  0  0  0  0  0  0  0  0  0  0  0
+          0  0  0  0  0  0  0  0  0  0  0  0  0  0  0  0  0
+          0  0  0  0  0  0  0  0  0  0  0  0  0  0  0  0  0
++         0  0  0  0  0  0  0  0  0  0  0  0  0  0  0  0  0
++         0  0  0  0  0  0  0  0  0  0  0  0  0  0  0  0  0
++         0  0  0  0  0  0  0  0  0  0  0  0  0  0  0  0  0
++         0  0  0  0  0  0  0  0  0  0  0  0  0  0  0  0  0
++         0  0  0  0  0  0  0  0  0  0  0  0  0  0  0  0  0
%c cc cc ccc ccc cccc cccc cccc cccc ccccc ccccc ccccc ccccc
%c cc cc ccc ccc cccc cccc cccc cccc ccccc ccccc ccccc ccccc
%f  0.0000000  0.000000000  0.00000000000  0.000000000000000
%f  0.0000000  0.000000000  0.00000000000  0.000000000000000
%i    0    0    0    0      0      0      0      0         0
%i    0    0    0    0      0      0      0      0         0
/*      NGA, ST. LOUIS,MO.                                  
/*   EPHEMERIS COMPUTED FROM  3 DAYS OF DATA                
/* CCCCCCCCCCCCCCCCCCCCCCCCCCCCCCCCCCCCCCCCCCCCCCCCCCCCCCCCC
/* CCCCCCCCCCCCCCCCCCCCCCCCCCCCCCCCCCCCCCCCCCCCCCCCCCCCCCCCC
*  2007  7 21 21 45   .00000000                                                 
P  1  14416.641493 -15366.980926 -15914.189757    141.270518                    
V  1  -3425.732599  20326.313305 -22507.679957       .022494                    
P  2 -21810.497475  13089.771968   6883.470566    123.269735                    
V  2  -9711.754153   -140.800042 -29937.290958       .028165                    
P  3  10624.696196 -21049.917655  11671.939725     89.950283                    
V  3   2252.661824  15603.932427  25964.688100       .055089                    
P  4 -25851.162602   5654.486932  -4000.454454      5.665545                    
V  4   3758.475830  -4376.387627 -30633.292379      -.017040                    
P  5  12315.504731  20126.214078 -12591.354354    205.473109                    
V  5 -14203.413167  -6942.980823 -25336.564272       .437701                    
P  6   8905.077202  19560.735436  15774.353583    238.094044                    
V  6  -5348.008234  19203.216968 -21085.505111       .051085                    
P  7  10990.426969  16945.556530  17569.630736    192.301996                    
V  7  -4674.192914  21328.651915 -18058.325281      -.206517                    
P  8 -23617.081792  -1617.856126  12374.666095   -115.838952                    
V  8  14590.233769  -6000.577891  26377.956902      -.015217                    
P  9  -3709.193035  16853.333358 -20743.131723     79.684208                    
V  9 -23615.992088   8324.233127  11527.866366       .016617                    
P 10 -11237.597815  10022.547425  21774.669665    105.102525                    
V 10 -20703.730434 -18687.087629  -1763.308600       .005736                    
P 11    203.398101 -18084.434045 -19486.293014     20.882871                    
V 11  22602.565383 -10571.236238  10405.701336       .007124                    
P 12   6426.873883  20162.585560 -15986.886549    -50.160629                    
V 12 -16762.168304 -11882.936735 -21521.915123      -.011587                    
P 13  -6979.472096 -19120.381870  16970.955909    191.839386                    
V 13   5893.015720 -20890.738091 -20950.152695       .031728                    
P 14  14845.245533   -434.686565 -21928.529275     31.189416                    
V 14  -5457.186828  27439.420331  -4308.012950       .020448                    
P 16  15788.001260  -5312.179220  20802.262747    164.198096                    
V 16  19122.173884  17902.908475  -9823.213315       .025841                    
P 17 -15095.254468  -2149.624283 -21724.988846     60.401452                    
V 17   5145.283602 -27158.146330  -1018.055321      -.012422                    
P 18  20056.126346  17666.128756  -1015.705506   -243.543160                    
V 18   -828.778325   3025.980778  31310.464275       .013468                    
P 19   7429.650574 -25400.916805   1275.305163     52.468090                    
V 19   2567.714522   2211.105544  31704.694890       .028868                    
P 20  -8934.850459 -20661.024645 -14229.409803    -27.078293                    
V 20  15200.573603   9720.078588 -23801.984223      -.004941                    
P 21  17600.654756   8520.369114  18358.217420     78.668123                    
V 21 -21384.179729   8341.424464  16167.179593       .000331                    
P 22  21863.647691   8501.798436 -12340.278063    191.602649                    
V 22   9795.855207  12818.948738  25820.426151       .015079                    
P 23  -1258.056461 -24964.584571   8564.046711    183.902758                    
V 23   4498.590131 -10388.445972 -29549.350845       .033547                    
P 24   4382.013739  14793.244234  21821.675247     16.916456                    
V 24 -26097.994149   7830.015011    216.315183       .028791                    
P 25 -10291.183980 -11979.126336  21703.773098    376.382402                    
V 25  24052.007714 -11655.889922   5206.708284       .163863                    
P 26  -8474.055267  24367.453033   4438.424192   -320.400437                    
V 26   -848.381908  -6630.505081  32155.373580      -.222297                    
P 27 -17320.701521  -7347.721485  19482.703322    124.054603                    
V 27  21061.943686  -9993.287635  15256.375314       .023193                    
P 28 -22216.736766 -11625.284647  -8927.117560     -3.424769                    
V 28  -7139.352938  -9571.550692  28783.902223      -.007388                    
P 29 -10664.276336  22169.799526   9691.732696      4.607714                    
V 29    303.020691 -12260.079491  29345.429207       .004448                    
P 30  16481.185674  19729.600373  -7221.830915     40.176924                    
V 30  -8667.199793  -3147.290622 -29574.431188       .010730                    
P 31  25306.116674  -8064.172965  -1292.879445     15.087348                    
V 31   -862.278374   3155.922209 -31705.380995      -.010454                    
P 32  16641.614574  -2544.112783 -20040.600540    522.164081                    
V 32  17871.093362  19599.195509  12197.561333       .200730                    
EOF
